STARLINK-30545          
1 58000U 23153K   26068.37792304 -.00001046  00000+0 -29325-4 0  9991
2 58000  42.9998  68.3822 0001208 226.2346 133.8405 15.26741829134851
FOSSASAT-2E20 (TAT-O)   
1 63003U 25009DN  26068.70855016  .00016337  00000+0  61863-3 0  9998
2 63003  97.3231 146.2859 0002189 347.5575  12.5610 15.26991080121314
